start=new Date('2023-03-02T00:00:00.000Z').valueOf();
sats=[{"COUNTRY_CODE":"US","PERIOD":"95.593","TIME_SYSTEM":"UTC","RCS_SIZE":"LARGE","MEAN_ANOMALY":"235.5492","ARG_OF_PERICENTER":"124.5633","SITE":"AFETR","MEAN_MOTION_DOT":"-0.00003035","ELEMENT_SET_NO":"999","OBJECT_NAME":"STARLINK-1136","RA_OF_ASC_NODE":"163.3267","REF_FRAME":"TEME","NORAD_CAT_ID":"45089","CLASSIFICATION_TYPE":"U","OBJECT_ID":"2020-006AX","REV_AT_EPOCH":"17061","EPHEMERIS_TYPE":"0","MEAN_ELEMENT_THEORY":"SGP4","DECAY_DATE":null,"MEAN_MOTION":"15.06384221","INCLINATION":"53.0526","MEAN_MOTION_DDOT":"0.0000000000000","BSTAR":"-0.00018504000000","PERIAPSIS":"546.265","OBJECT_TYPE":"PAYLOAD","LAUNCH_DATE":"2020-01-29","SEMIMAJOR_AXIS":"6925.397","EPOCH":"2023-03-01T13:28:41.293920","FILE":"3848834","CENTER_NAME":"EARTH","TLE_LINE2":"2 45089  53.0526 163.3267 0001439 124.5633 235.5492 15.06384221170615","APOAPSIS":"548.258","ECCENTRICITY":"0.00014390","TLE_LINE1":"1 45089U 20006AX  23060.56158905 -.00003035  00000-0 -18504-3 0  9998","GP_ID":"227315235"},{"SEMIMAJOR_AXIS":"6925.489","EPOCH":"2023-03-01T19:17:38.141952","CENTER_NAME":"EARTH","FILE":"3848834","TLE_LINE1":"1 45090U 20006AY  23060.80391368  .00007518  00000-0  52373-3 0  9999","TLE_LINE2":"2 45090  53.0521 162.1452 0001645  81.4369 278.6806 15.06354293170647","APOAPSIS":"548.493","ECCENTRICITY":"0.00016450","GP_ID":"227315986","INCLINATION":"53.0521","MEAN_MOTION_DDOT":"0.0000000000000","PERIAPSIS":"546.214","BSTAR":"0.00052373000000","LAUNCH_DATE":"2020-01-29","OBJECT_TYPE":"PAYLOAD","MEAN_MOTION_DOT":"0.00007518","OBJECT_NAME":"STARLINK-1176","ELEMENT_SET_NO":"999","OBJECT_ID":"2020-006AY","CLASSIFICATION_TYPE":"U","RA_OF_ASC_NODE":"162.1452","REF_FRAME":"TEME","NORAD_CAT_ID":"45090","REV_AT_EPOCH":"17064","EPHEMERIS_TYPE":"0","MEAN_ELEMENT_THEORY":"SGP4","DECAY_DATE":null,"MEAN_MOTION":"15.06354293","COUNTRY_CODE":"US","PERIOD":"95.595","TIME_SYSTEM":"UTC","MEAN_ANOMALY":"278.6806","RCS_SIZE":"LARGE","ARG_OF_PERICENTER":"81.4369","SITE":"AFETR"},{"TLE_LINE1":"1 45092U 20006BA  23060.77905455  .00031245  00000-0  21087-2 0  9996","APOAPSIS":"548.057","TLE_LINE2":"2 45092  53.0525 162.2662 0001103 119.2388 240.8711 15.06373934170635","ECCENTRICITY":"0.00011030","GP_ID":"227316732","SEMIMAJOR_AXIS":"6925.428","CENTER_NAME":"EARTH","FILE":"3848834","EPOCH":"2023-03-01T18:41:50.313120","LAUNCH_DATE":"2020-01-29","OBJECT_TYPE":"PAYLOAD","PERIAPSIS":"546.530","BSTAR":"0.00210870000000","INCLINATION":"53.0525","MEAN_MOTION_DDOT":"0.0000000000000","EPHEMERIS_TYPE":"0","DECAY_DATE":null,"MEAN_MOTION":"15.06373934","MEAN_ELEMENT_THEORY":"SGP4","OBJECT_NAME":"STARLINK-1137","ELEMENT_SET_NO":"999","MEAN_MOTION_DOT":"0.00031245","REV_AT_EPOCH":"17063","OBJECT_ID":"2020-006BA","CLASSIFICATION_TYPE":"U","RA_OF_ASC_NODE":"162.2662","REF_FRAME":"TEME","NORAD_CAT_ID":"45092","MEAN_ANOMALY":"240.8711","RCS_SIZE":"LARGE","TIME_SYSTEM":"UTC","SITE":"AFETR","ARG_OF_PERICENTER":"119.2388","PERIOD":"95.594","COUNTRY_CODE":"US"},{"REV_AT_EPOCH":"17063","NORAD_CAT_ID":"45093","RA_OF_ASC_NODE":"162.2819","REF_FRAME":"TEME","OBJECT_ID":"2020-006BB","CLASSIFICATION_TYPE":"U","ELEMENT_SET_NO":"999","OBJECT_NAME":"STARLINK-1142","MEAN_MOTION_DOT":"0.00029717","DECAY_DATE":null,"MEAN_MOTION":"15.06368251","MEAN_ELEMENT_THEORY":"SGP4","EPHEMERIS_TYPE":"0","PERIOD":"95.594","COUNTRY_CODE":"US","SITE":"AFETR","ARG_OF_PERICENTER":"73.5032","RCS_SIZE":"LARGE","MEAN_ANOMALY":"286.6123","TIME_SYSTEM":"UTC","FILE":"3848834","CENTER_NAME":"EARTH","EPOCH":"2023-03-01T18:36:32.169312","SEMIMAJOR_AXIS":"6925.446","GP_ID":"227315485","TLE_LINE2":"2 45093  53.0533 162.2819 0001516  73.5032 286.6123 15.06368251170636","ECCENTRICITY":"0.00015160","APOAPSIS":"548.361","TLE_LINE1":"1 45093U 20006BB  23060.77537233  .00029717  00000-0  20072-2 0  9996","MEAN_MOTION_DDOT":"0.0000000000000","INCLINATION":"53.0533","OBJECT_TYPE":"PAYLOAD","LAUNCH_DATE":"2020-01-29","BSTAR":"0.00200720000000","PERIAPSIS":"546.261"},{"GP_ID":"227315735","ECCENTRICITY":"0.00010020","TLE_LINE2":"2 45094  53.0519 162.2107 0001002 115.1134 244.9959 15.06373380170641","APOAPSIS":"547.989","TLE_LINE1":"1 45094U 20006BC  23060.78916537  .00030363  00000-0  20500-2 0  9991","EPOCH":"2023-03-01T18:56:23.887968","FILE":"3848834","CENTER_NAME":"EARTH","SEMIMAJOR_AXIS":"6925.430","BSTAR":"0.00205000000000","PERIAPSIS":"546.601","OBJECT_TYPE":"PAYLOAD","LAUNCH_DATE":"2020-01-29","MEAN_MOTION_DDOT":"0.0000000000000","INCLINATION":"53.0519","MEAN_ELEMENT_THEORY":"SGP4","DECAY_DATE":null,"MEAN_MOTION":"15.06373380","EPHEMERIS_TYPE":"0","RA_OF_ASC_NODE":"162.2107","REF_FRAME":"TEME","NORAD_CAT_ID":"45094","OBJECT_ID":"2020-006BC","CLASSIFICATION_TYPE":"U","REV_AT_EPOCH":"17064","MEAN_MOTION_DOT":"0.00030363","ELEMENT_SET_NO":"999","OBJECT_NAME":"STARLINK-1146","SITE":"AFETR","ARG_OF_PERICENTER":"115.1134","TIME_SYSTEM":"UTC","RCS_SIZE":"LARGE","MEAN_ANOMALY":"244.9959","COUNTRY_CODE":"US","PERIOD":"95.594"},{"EPHEMERIS_TYPE":"0","DECAY_DATE":null,"MEAN_MOTION":"15.06360200","MEAN_ELEMENT_THEORY":"SGP4","OBJECT_NAME":"STARLINK-1147","ELEMENT_SET_NO":"999","MEAN_MOTION_DOT":"0.00000324","REV_AT_EPOCH":"17061","OBJECT_ID":"2020-006BD","CLASSIFICATION_TYPE":"U","NORAD_CAT_ID":"45095","RA_OF_ASC_NODE":"163.0868","REF_FRAME":"TEME","MEAN_ANOMALY":"316.9689","RCS_SIZE":"LARGE","TIME_SYSTEM":"UTC","ARG_OF_PERICENTER":"43.1443","SITE":"AFETR","PERIOD":"95.595","COUNTRY_CODE":"US","TLE_LINE1":"1 45095U 20006BD  23060.59380196  .00000324  00000-0  40710-4 0  9998","TLE_LINE2":"2 45095  53.0530 163.0868 0001835  43.1443 316.9689 15.06360200170619","APOAPSIS":"548.606","ECCENTRICITY":"0.00018350","GP_ID":"227316485","SEMIMAJOR_AXIS":"6925.471","CENTER_NAME":"EARTH","FILE":"3848834","EPOCH":"2023-03-01T14:15:04.489344","LAUNCH_DATE":"2020-01-29","OBJECT_TYPE":"PAYLOAD","PERIAPSIS":"546.065","BSTAR":"0.00004071000000","INCLINATION":"53.0530","MEAN_MOTION_DDOT":"0.0000000000000"},{"OBJECT_TYPE":"PAYLOAD","LAUNCH_DATE":"2020-01-29","BSTAR":"0.00184790000000","PERIAPSIS":"546.190","MEAN_MOTION_DDOT":"0.0000000000000","INCLINATION":"53.0528","GP_ID":"227316234","TLE_LINE2":"2 45096  53.0528 162.5296 0001630  93.1690 266.9485 15.06365699170624","APOAPSIS":"548.448","ECCENTRICITY":"0.00016300","TLE_LINE1":"1 45096U 20006BE  23060.72007834  .00027325  00000-0  18479-2 0  9994","FILE":"3848834","CENTER_NAME":"EARTH","EPOCH":"2023-03-01T17:16:54.768576","SEMIMAJOR_AXIS":"6925.454","SITE":"AFETR","ARG_OF_PERICENTER":"93.1690","RCS_SIZE":"LARGE","MEAN_ANOMALY":"266.9485","TIME_SYSTEM":"UTC","PERIOD":"95.594","COUNTRY_CODE":"US","DECAY_DATE":null,"MEAN_MOTION":"15.06365699","MEAN_ELEMENT_THEORY":"SGP4","EPHEMERIS_TYPE":"0","REV_AT_EPOCH":"17062","REF_FRAME":"TEME","RA_OF_ASC_NODE":"162.5296","NORAD_CAT_ID":"45096","CLASSIFICATION_TYPE":"U","OBJECT_ID":"2020-006BE","ELEMENT_SET_NO":"999","OBJECT_NAME":"STARLINK-1152","MEAN_MOTION_DOT":"0.00027325"},{"EPHEMERIS_TYPE":"0","MEAN_ELEMENT_THEORY":"SGP4","MEAN_MOTION":"15.06371251","DECAY_DATE":null,"MEAN_MOTION_DOT":"0.00014938","ELEMENT_SET_NO":"999","OBJECT_NAME":"STARLINK-1184","REF_FRAME":"TEME","RA_OF_ASC_NODE":"163.2078","NORAD_CAT_ID":"45098","CLASSIFICATION_TYPE":"U","OBJECT_ID":"2020-006BG","REV_AT_EPOCH":"17060","TIME_SYSTEM":"UTC","RCS_SIZE":"LARGE","MEAN_ANOMALY":"301.1681","SITE":"AFETR","ARG_OF_PERICENTER":"58.9447","COUNTRY_CODE":"US","PERIOD":"95.594","TLE_LINE2":"2 45098  53.0525 163.2078 0001411  58.9447 301.1681 15.06371251170604","APOAPSIS":"548.279","ECCENTRICITY":"0.00014110","TLE_LINE1":"1 45098U 20006BG  23060.56895446  .00014938  00000-0  10204-2 0  9996","GP_ID":"227314987","SEMIMAJOR_AXIS":"6925.437","EPOCH":"2023-03-01T13:39:17.665344","FILE":"3848834","CENTER_NAME":"EARTH","BSTAR":"0.00102040000000","PERIAPSIS":"546.324","OBJECT_TYPE":"PAYLOAD","LAUNCH_DATE":"2020-01-29","INCLINATION":"53.0525","MEAN_MOTION_DDOT":"0.0000000000000"},{"OBJECT_TYPE":"PAYLOAD","LAUNCH_DATE":"2020-01-29","BSTAR":"0.00210720000000","PERIAPSIS":"545.929","MEAN_MOTION_DDOT":"0.0000000000000","INCLINATION":"53.0518","GP_ID":"227315236","ECCENTRICITY":"0.00021060","TLE_LINE2":"2 45099  53.0518 162.7616 0002106  43.7693 316.3463 15.06343243170624","APOAPSIS":"548.846","TLE_LINE1":"1 45099U 20006BH  23060.66847266  .00031197  00000-0  21072-2 0  9996","FILE":"3848834","CENTER_NAME":"EARTH","EPOCH":"2023-03-01T16:02:36.037824","SEMIMAJOR_AXIS":"6925.523","SITE":"AFETR","ARG_OF_PERICENTER":"43.7693","RCS_SIZE":"LARGE","MEAN_ANOMALY":"316.3463","TIME_SYSTEM":"UTC","PERIOD":"95.596","COUNTRY_CODE":"US","DECAY_DATE":null,"MEAN_MOTION":"15.06343243","MEAN_ELEMENT_THEORY":"SGP4","EPHEMERIS_TYPE":"0","REV_AT_EPOCH":"17062","REF_FRAME":"TEME","NORAD_CAT_ID":"45099","RA_OF_ASC_NODE":"162.7616","OBJECT_ID":"2020-006BH","CLASSIFICATION_TYPE":"U","ELEMENT_SET_NO":"999","OBJECT_NAME":"STARLINK-1186","MEAN_MOTION_DOT":"0.00031197"},{"SITE":"AFETR","ARG_OF_PERICENTER":"85.9289","TIME_SYSTEM":"UTC","RCS_SIZE":"LARGE","MEAN_ANOMALY":"274.1889","COUNTRY_CODE":"US","PERIOD":"95.593","MEAN_ELEMENT_THEORY":"SGP4","DECAY_DATE":null,"MEAN_MOTION":"15.06383200","EPHEMERIS_TYPE":"0","NORAD_CAT_ID":"45100","REF_FRAME":"TEME","RA_OF_ASC_NODE":"162.3290","OBJECT_ID":"2020-006BJ","CLASSIFICATION_TYPE":"U","REV_AT_EPOCH":"17063","MEAN_MOTION_DOT":"0.00021023","ELEMENT_SET_NO":"999","OBJECT_NAME":"STARLINK-1193","BSTAR":"0.00142670000000","PERIAPSIS":"546.120","OBJECT_TYPE":"PAYLOAD","LAUNCH_DATE":"2020-01-29","MEAN_MOTION_DDOT":"0.0000000000000","INCLINATION":"53.0499","GP_ID":"227315987","TLE_LINE2":"2 45100  53.0499 162.3290 0001653  85.9289 274.1889 15.06383200170635","APOAPSIS":"548.410","ECCENTRICITY":"0.00016530","TLE_LINE1":"1 45100U 20006BJ  23060.76431184  .00021023  00000-0  14267-2 0  9993","EPOCH":"2023-03-01T18:20:36.542976","FILE":"3848834","CENTER_NAME":"EARTH","SEMIMAJOR_AXIS":"6925.400"}];
